- !!map
  id:                 328
  name:               Rooe
  radius:             4127000
  atmosphereAlt:      1414080
  mass:               2.852914399381943e+24
  stdGravParam:       190412065757949
  soi:                5161202345.049395
  orbit:
    semiMajorAxis:    175000000000
    eccentricity:     0.24
    inclination:      0.64
    argOfPeriapsis:   187
    ascNodeLongitude: 61
  meanAnomaly0:       0
  epoch:              0
  orbiting:           0
  color:              0xcc7f47

- !!map
  id:                 329
  name:               Mithrandir
  radius:             98000
  mass:               127001722937236870000
  stdGravParam:       8476475993.999999
  soi:                369187.1299136265
  orbit:
    semiMajorAxis:    20316000
    eccentricity:     0.12
    inclination:      -2.07
    argOfPeriapsis:   115
    ascNodeLongitude: 66
  meanAnomaly0:       0
  epoch:              0
  orbiting:           328
  color:              0xe6e6f9

- !!map
  id:                 330
  name:               Miranda
  radius:             562000
  mass:               3.805409827745232e+22
  stdGravParam:       2539844681332
  soi:                923146405.1432306
  orbit:
    semiMajorAxis:    176000000000
    eccentricity:     0.22
    inclination:      4.7
    argOfPeriapsis:   270
    ascNodeLongitude: 0
  meanAnomaly0:       2.6
  epoch:              0
  orbiting:           0
  color:              0x33ff

- !!map
  id:                 331
  name:               Puck
  radius:             77000
  mass:               26134708291506230000
  stdGravParam:       1744308835.5
  soi:                237065.58224703543
  orbit:
    semiMajorAxis:    4366586
    eccentricity:     0.722
    inclination:      63.4
    argOfPeriapsis:   270
    ascNodeLongitude: 0
  meanAnomaly0:       2.718
  epoch:              0
  orbiting:           330
  color:              0xff4c

- !!map
  id:                 332
  name:               Umbriel
  radius:             206000
  mass:               1.2470371406739284e+21
  stdGravParam:       83230999880
  soi:                4215738.868381725
  orbit:
    semiMajorAxis:    16545600
    eccentricity:     0.01
    inclination:      12
    argOfPeriapsis:   240
    ascNodeLongitude: 0
  meanAnomaly0:       0
  epoch:              0
  orbiting:           330
  color:              0x996619

- !!map
  id:                 333
  name:               Titania
  radius:             388000
  mass:               1.238700834328694e+22
  stdGravParam:       826746097856.0001
  soi:                10561084.529064247
  orbit:
    semiMajorAxis:    16545600
    eccentricity:     0.01
    inclination:      12
    argOfPeriapsis:   120
    ascNodeLongitude: 0
  meanAnomaly0:       0
  epoch:              0
  orbiting:           330
  color:              0xff0ff

- !!map
  id:                 334
  name:               Oberon
  radius:             25000
  mass:               918321958857108700
  stdGravParam:       61291562.5
  soi:                107076.93959289954
  orbit:
    semiMajorAxis:    4804902
    eccentricity:     0.452
    inclination:      -63.4
    argOfPeriapsis:   270
    ascNodeLongitude: 0
  meanAnomaly0:       1.77
  epoch:              0
  orbiting:           333
  color:              0x33ff33

- !!map
  id:                 335
  name:               Caliban
  radius:             317000
  mass:               6.644250383298623e+21
  stdGravParam:       443457203332.5
  soi:                8231904.864199345
  orbit:
    semiMajorAxis:    16545600
    eccentricity:     0.01
    inclination:      12
    argOfPeriapsis:   0
    ascNodeLongitude: 0
  meanAnomaly0:       0
  epoch:              0
  orbiting:           330
  color:              0x4c00

- !!map
  id:                 336
  name:               Ariel
  radius:             102000
  mass:               122294037247351780000
  stdGravParam:       8162270927.999999
  soi:                10327861.252851756
  orbit:
    semiMajorAxis:    102614529
    eccentricity:     0.32
    inclination:      5.2
    argOfPeriapsis:   39
    ascNodeLongitude: 0
  meanAnomaly0:       1.9
  epoch:              0
  orbiting:           330
  color:              0x4cff0

- !!map
  id:                 337
  name:               Barney
  radius:             600000
  mass:               4.233073131264702e+22
  stdGravParam:       2825280000000
  soi:                84190980
  orbit:
    semiMajorAxis:    210000000000
    eccentricity:     0.01
    inclination:      10
    argOfPeriapsis:   0
    ascNodeLongitude: 0
  meanAnomaly0:       0
  epoch:              2332222300
  orbiting:           0
  color:              0x937575

- !!map
  id:                 338
  name:               Slade
  radius:             60000
  mass:               26456707070404390000
  stdGravParam:       1765800000
  soi:                130704.94407390915
  orbit:
    semiMajorAxis:    2500000
    eccentricity:     0
    inclination:      79
    argOfPeriapsis:   0
    ascNodeLongitude: 0
  meanAnomaly0:       3
  epoch:              0
  orbiting:           337
  color:              0x5b4c68

- !!map
  id:                 339
  name:               Joker
  radius:             60000
  mass:               26456707070404390000
  stdGravParam:       1765800000
  soi:                2461948.5
  orbit:
    semiMajorAxis:    3537870
    eccentricity:     0
    inclination:      236
    argOfPeriapsis:   0
    ascNodeLongitude: 0
  meanAnomaly0:       0
  epoch:              0
  orbiting:           337
  color:              0x5b4c68

- !!map
  id:                 340
  name:               Crokslev
  radius:             32500
  mass:               3879910276171284000
  stdGravParam:       258956851.56249997
  soi:                31427721.50022467
  orbit:
    semiMajorAxis:    236693800000
    eccentricity:     0.03
    inclination:      23.382
    argOfPeriapsis:   242.9
    ascNodeLongitude: 300.43
  meanAnomaly0:       77.67
  epoch:              1
  orbiting:           0
  color:              0x808080

- !!map
  id:                 341
  name:               Urlum
  radius:             2177000
  atmosphereAlt:      325000.0
  mass:               1.7896369311579417e+23
  stdGravParam:       11944573769627.45
  soi:                2477871199.5463705
  orbit:
    semiMajorAxis:    254317012787
    eccentricity:     0.045214674
    inclination:      0.64
    argOfPeriapsis:   0
    ascNodeLongitude: 61
  meanAnomaly0:       5.59607362747192
  epoch:              422.539999999906
  orbiting:           0
  color:              0x48d1cc

- !!map
  id:                 342
  name:               Priax
  radius:             74000
  mass:               50689608950751390000
  stdGravParam:       3383176570.2
  soi:                446767.6019786148
  orbit:
    semiMajorAxis:    11727895
    eccentricity:     0.0015
    inclination:      2.5
    argOfPeriapsis:   0
    ascNodeLongitude: 40
  meanAnomaly0:       1.5209
  epoch:              878.1399
  orbiting:           341
  color:              0x6b6a66

- !!map
  id:                 343
  name:               Polta
  radius:             220000
  mass:               1.3511821973839953e+21
  stdGravParam:       90181953400
  soi:                1661114.8530520673
  orbit:
    semiMajorAxis:    11727895
    eccentricity:     0.0015
    inclination:      2.45
    argOfPeriapsis:   60
    ascNodeLongitude: 40
  meanAnomaly0:       1.5209
  epoch:              878.1399
  orbiting:           341
  color:              0x7a9f93

- !!map
  id:                 344
  name:               Wal
  radius:             370000
  mass:               7.44252194911826e+21
  stdGravParam:       496736242450
  soi:                18933504.68477647
  orbit:
    semiMajorAxis:    67553668
    eccentricity:     0.023
    inclination:      1.9
    argOfPeriapsis:   0
    ascNodeLongitude: 40
  meanAnomaly0:       2.9615
  epoch:              1078.179
  orbiting:           341
  color:              0xb89963

- !!map
  id:                 345
  name:               Tal
  radius:             22000
  mass:               3200168362225252400
  stdGravParam:       213588837
  soi:                139966.65125981288
  orbit:
    semiMajorAxis:    3109163
    eccentricity:     0
    inclination:      1.9
    argOfPeriapsis:   0
    ascNodeLongitude: 40
  meanAnomaly0:       0
  epoch:              1179.579
  orbiting:           344
  color:              0x665b4a

- !!map
  id:                 346
  name:               Parvus
  radius:             7918453
  atmosphereAlt:      77000.0
  mass:               7.232114532293999e+24
  stdGravParam:       482693020228898.3
  soi:                10911778214.56573
  orbit:
    semiMajorAxis:    255030470005.3487
    eccentricity:     0.0309354089430594
    inclination:      6.90187431871891
    argOfPeriapsis:   0
    ascNodeLongitude: 207.310338020325
  meanAnomaly0:       3.14
  epoch:              0
  orbiting:           0
  color:              0xNaN

- !!map
  id:                 347
  name:               Putto
  radius:             122000
  mass:               320166353730578500000
  stdGravParam:       21368862947.039997
  soi:                202600128.83589435
  orbit:
    semiMajorAxis:    261151244850
    eccentricity:     0.25
    inclination:      17.15
    argOfPeriapsis:   115
    ascNodeLongitude: 62
  meanAnomaly0:       5.8
  epoch:              0
  orbiting:           0
  color:              0xe8c246

- !!map
  id:                 348
  name:               Dhar
  radius:             8000
  mass:               143875337938060900
  stdGravParam:       9602671.679999998
  soi:                59564.51624505746
  orbit:
    semiMajorAxis:    1300000
    eccentricity:     0.12
    inclination:      8
    argOfPeriapsis:   190
    ascNodeLongitude: 164
  meanAnomaly0:       1.1
  epoch:              0
  orbiting:           347
  color:              0x4a4236

